[
    {
        "Altitude(m)": 605459.0052601247,
        "Argument of Periapsis(deg)": 0.0,
        "Eccentricity": 0.0,
        "Inclination(deg)": 60.0,
        "Latitude(deg)": 27.98813757632987,
        "Longitude(deg)": -57.201442336922696,
        "Mean Anomaly(deg)": 32.7273,
        "RAAN(deg)": 25.0,
        "Satellite Name": "Test1 112",
        "Satellite Number": 112,
        "Semi-Major Axis(m)": 6980739.136638005,
        "Time(s)": 0
    },
    {
        "Altitude(m)": 605535.7960983468,
        "Argument of Periapsis(deg)": 0.00010418945913296404,
        "Eccentricity": 0.0,
        "Inclination(deg)": 60.0,
        "Latitude(deg)": 28.501267414695224,
        "Longitude(deg)": -56.844498103669004,
        "Mean Anomaly(deg)": 33.347406145461825,
        "RAAN(deg)": 24.99957995086026,
        "Satellite Name": "Test1 112",
        "Satellite Number": 112,
        "Semi-Major Axis(m)": 6980739.136638005,
        "Time(s)": 10
    }
]